{
  "type": "FeatureCollection",
  "features": [
    {
      "type": "Feature",
      "properties": {
        "norad_id": 35065,
        "name": "COSMOS 2251 DEB",
        "group": "cosmos-2251-debris",
        "lat": 4.254161435613266,
        "lon": 20.13082898069006,
        "alt_km": 753.9914120233834,
        "timestamp": "2025-12-08T23:34:04.367714+00:00",
        "meta_object_name": "COSMOS 2251 DEB",
        "meta_object_id": "1993-036AHU",
        "meta_epoch": "2025-12-06T22:35:45.269952",
        "meta_mean_motion": 14.4570153,
        "meta_eccentricity": 0.00196371,
        "meta_inclination": 74.0198,
        "meta_ra_of_asc_node": 205.1597,
        "meta_arg_of_pericenter": 331.0404,
        "meta_mean_anomaly": 28.9662,
        "meta_ephemeris_type": 0,
        "meta_classification_type": "U",
        "meta_norad_cat_id": 35065,
        "meta_element_set_no": 999,
        "meta_rev_at_epoch": 68267,
        "meta_bstar": 0.00070588352,
        "meta_mean_motion_dot": 2.479e-05,
        "meta_mean_motion_ddot": 0,
        "tle_line1": "1 35065U 93036AHU 25340.94149618  .00002479  00000+0  70588-3 0  9998",
        "tle_line2": "2 35065  74.0198 205.1597 0019637 331.0404  28.9662 14.45701530682672"
      },
      "geometry": {
        "type": "Point",
        "coordinates": [
          20.13082898069006,
          4.254161435613266
        ]
      }
    },
    {
      "type": "Feature",
      "properties": {
        "norad_id": 35071,
        "name": "COSMOS 2251 DEB",
        "group": "cosmos-2251-debris",
        "lat": -24.18957344645985,
        "lon": 173.72558720180518,
        "alt_km": 572.969045381511,
        "timestamp": "2025-12-08T23:34:04.367724+00:00",
        "meta_object_name": "COSMOS 2251 DEB",
        "meta_object_id": "1993-036AJA",
        "meta_epoch": "2025-12-06T06:11:48.969024",
        "meta_mean_motion": 15.03269957,
        "meta_eccentricity": 0.00683754,
        "meta_inclination": 73.9314,
        "meta_ra_of_asc_node": 186.7627,
        "meta_arg_of_pericenter": 85.1943,
        "meta_mean_anomaly": 275.7048,
        "meta_ephemeris_type": 0,
        "meta_classification_type": "U",
        "meta_norad_cat_id": 35071,
        "meta_element_set_no": 999,
        "meta_rev_at_epoch": 67439,
        "meta_bstar": 0.0011992827,
        "meta_mean_motion_dot": 0.00017109,
        "meta_mean_motion_ddot": 0,
        "tle_line1": "1 35071U 93036AJA 25340.25820566  .00017109  00000+0  11993-2 0  9997",
        "tle_line2": "2 35071  73.9314 186.7627 0068375  85.1943 275.7048 15.03269957674390"
      },
      "geometry": {
        "type": "Point",
        "coordinates": [
          173.72558720180518,
          -24.18957344645985
        ]
      }
    },
    {
      "type": "Feature",
      "properties": {
        "norad_id": 35073,
        "name": "COSMOS 2251 DEB",
        "group": "cosmos-2251-debris",
        "lat": 53.366284778512544,
        "lon": 135.54091719640377,
        "alt_km": 555.5665272370361,
        "timestamp": "2025-12-08T23:34:04.367735+00:00",
        "meta_object_name": "COSMOS 2251 DEB",
        "meta_object_id": "1993-036AJC",
        "meta_epoch": "2025-12-06T06:59:58.933248",
        "meta_mean_motion": 14.99991639,
        "meta_eccentricity": 0.00102924,
        "meta_inclination": 74.0009,
        "meta_ra_of_asc_node": 343.7168,
        "meta_arg_of_pericenter": 84.8418,
        "meta_mean_anomaly": 275.3943,
        "meta_ephemeris_type": 0,
        "meta_classification_type": "U",
        "meta_norad_cat_id": 35073,
        "meta_element_set_no": 999,
        "meta_rev_at_epoch": 67382,
        "meta_bstar": 0.0044204403,
        "meta_mean_motion_dot": 0.00055435,
        "meta_mean_motion_ddot": 0,
        "tle_line1": "1 35073U 93036AJC 25340.29165432  .00055435  00000+0  44204-2 0  9992",
        "tle_line2": "2 35073  74.0009 343.7168 0010292  84.8418 275.3943 14.99991639673828"
      },
      "geometry": {
        "type": "Point",
        "coordinates": [
          135.54091719640377,
          53.366284778512544
        ]
      }
    },
    {
      "type": "Feature",
      "properties": {
        "norad_id": 35284,
        "name": "COSMOS 2251 DEB",
        "group": "cosmos-2251-debris",
        "lat": -29.00441207254756,
        "lon": -97.78070398781767,
        "alt_km": 758.3807720982823,
        "timestamp": "2025-12-08T23:34:04.367746+00:00",
        "meta_object_name": "COSMOS 2251 DEB",
        "meta_object_id": "1993-036AJN",
        "meta_epoch": "2025-12-07T06:41:11.898816",
        "meta_mean_motion": 14.38308297,
        "meta_eccentricity": 0.00165721,
        "meta_inclination": 74.049,
        "meta_ra_of_asc_node": 274.4779,
        "meta_arg_of_pericenter": 351.9978,
        "meta_mean_anomaly": 161.4544,
        "meta_ephemeris_type": 0,
        "meta_classification_type": "U",
        "meta_norad_cat_id": 35284,
        "meta_element_set_no": 999,
        "meta_rev_at_epoch": 65447,
        "meta_bstar": 0.00033658929,
        "meta_mean_motion_dot": 1e-05,
        "meta_mean_motion_ddot": 0,
        "tle_line1": "1 35284U 93036AJN 25341.27860994  .00001000  00000+0  33659-3 0  9992",
        "tle_line2": "2 35284  74.0490 274.4779 0016572 351.9978 161.4544 14.38308297654477"
      },
      "geometry": {
        "type": "Point",
        "coordinates": [
          -97.78070398781767,
          -29.00441207254756
        ]
      }
    },
    {
      "type": "Feature",
      "properties": {
        "norad_id": 35287,
        "name": "COSMOS 2251 DEB",
        "group": "cosmos-2251-debris",
        "lat": 7.725902852260661,
        "lon": 100.81465274189065,
        "alt_km": 782.9195983225109,
        "timestamp": "2025-12-08T23:34:04.367756+00:00",
        "meta_object_name": "COSMOS 2251 DEB",
        "meta_object_id": "1993-036AJR",
        "meta_epoch": "2025-12-08T06:45:42.279840",
        "meta_mean_motion": 14.36370501,
        "meta_eccentricity": 0.00173563,
        "meta_inclination": 74.0304,
        "meta_ra_of_asc_node": 284.3273,
        "meta_arg_of_pericenter": 22.2122,
        "meta_mean_anomaly": 130.0196,
        "meta_ephemeris_type": 0,
        "meta_classification_type": "U",
        "meta_norad_cat_id": 35287,
        "meta_element_set_no": 999,
        "meta_rev_at_epoch": 86828,
        "meta_bstar": 0.00029165774,
        "meta_mean_motion_dot": 8.29e-06,
        "meta_mean_motion_ddot": 0,
        "tle_line1": "1 35287U 93036AJR 25342.28173935  .00000829  00000+0  29166-3 0  9995",
        "tle_line2": "2 35287  74.0304 284.3273 0017356  22.2122 130.0196 14.36370501868289"
      },
      "geometry": {
        "type": "Point",
        "coordinates": [
          100.81465274189065,
          7.725902852260661
        ]
      }
    },
    {
      "type": "Feature",
      "properties": {
        "norad_id": 35288,
        "name": "COSMOS 2251 DEB",
        "group": "cosmos-2251-debris",
        "lat": -64.74155545157984,
        "lon": -15.153913354619972,
        "alt_km": 659.3411276162069,
        "timestamp": "2025-12-08T23:34:04.367767+00:00",
        "meta_object_name": "COSMOS 2251 DEB",
        "meta_object_id": "1993-036AJS",
        "meta_epoch": "2025-12-08T09:08:27.010752",
        "meta_mean_motion": 14.65383291,
        "meta_eccentricity": 0.00395663,
        "meta_inclination": 73.9507,
        "meta_ra_of_asc_node": 23.6078,
        "meta_arg_of_pericenter": 257.7002,
        "meta_mean_anomaly": 101.9735,
        "meta_ephemeris_type": 0,
        "meta_classification_type": "U",
        "meta_norad_cat_id": 35288,
        "meta_element_set_no": 999,
        "meta_rev_at_epoch": 87814,
        "meta_bstar": 0.0014064847,
        "meta_mean_motion_dot": 7.666e-05,
        "meta_mean_motion_ddot": 0,
        "tle_line1": "1 35288U 93036AJS 25342.38086818  .00007666  00000+0  14065-2 0  9997",
        "tle_line2": "2 35288  73.9507  23.6078 0039566 257.7002 101.9735 14.65383291878143"
      },
      "geometry": {
        "type": "Point",
        "coordinates": [
          -15.153913354619972,
          -64.74155545157984
        ]
      }
    },
    {
      "type": "Feature",
      "properties": {
        "norad_id": 35290,
        "name": "COSMOS 2251 DEB",
        "group": "cosmos-2251-debris",
        "lat": 7.314279254458503,
        "lon": 68.96345582981087,
        "alt_km": 632.209853953781,
        "timestamp": "2025-12-08T23:34:04.367777+00:00",
        "meta_object_name": "COSMOS 2251 DEB",
        "meta_object_id": "1993-036AJU",
        "meta_epoch": "2025-12-08T12:10:44.215680",
        "meta_mean_motion": 14.8018119,
        "meta_eccentricity": 0.00027465,
        "meta_inclination": 74.0052,
        "meta_ra_of_asc_node": 67.7898,
        "meta_arg_of_pericenter": 203.6265,
        "meta_mean_anomaly": 156.4785,
        "meta_ephemeris_type": 0,
        "meta_classification_type": "U",
        "meta_norad_cat_id": 35290,
        "meta_element_set_no": 999,
        "meta_rev_at_epoch": 87895,
        "meta_bstar": 0.002766883,
        "meta_mean_motion_dot": 0.00021059,
        "meta_mean_motion_ddot": 0,
        "tle_line1": "1 35290U 93036AJU 25342.50745620  .00021059  00000+0  27669-2 0  9993",
        "tle_line2": "2 35290  74.0052  67.7898 0002746 203.6265 156.4785 14.80181190878953"
      },
      "geometry": {
        "type": "Point",
        "coordinates": [
          68.96345582981087,
          7.314279254458503
        ]
      }
    }
  ]
}